$$SOE
2459580.500000000, A.D. 2022-Jan-01 00:00:00.0000, 3.884557746446664E+08, -1.051549552502865E+08, -3.172399929024357E+07,
2459587.500000000, A.D. 2022-Jan-08 00:00:00.0000, 3.929160471805868E+08, -9.638396665239921E+07, -3.185820922871219E+07,
2459594.500000000, A.D. 2022-Jan-15 00:00:00.0000, 3.970911939531931E+08, -8.754312531467268E+07, -3.196925849580950E+07,
2459601.500000000, A.D. 2022-Jan-22 00:00:00.0000, 4.009825427142347E+08, -7.863981802885857E+07, -3.205741733993418E+07,
2459608.500000000, A.D. 2022-Jan-29 00:00:00.0000, 4.045914828641195E+08, -6.968123371093708E+07, -3.212295612224809E+07,
2459615.500000000, A.D. 2022-Feb-05 00:00:00.0000, 4.079194563825731E+08, -6.067437410820927E+07, -3.216614488075178E+07,
2459622.500000000, A.D. 2022-Feb-12 00:00:00.0000, 4.109679516284003E+08, -5.162606523633200E+07, -3.218725322356883E+07,
2459629.500000000, A.D. 2022-Feb-19 00:00:00.0000, 4.137384986247767E+08, -4.254296718252341E+07, -3.218655023212653E+07,
2459636.500000000, A.D. 2022-Feb-26 00:00:00.0000, 4.162326644668800E+08, -3.343158300573424E+07, -3.216430430949302E+07,
2459643.500000000, A.D. 2022-Mar-05 00:00:00.0000, 4.184520489638273E+08, -2.429826736018085E+07, -3.212078303584556E+07,
2459650.500000000, A.D. 2022-Mar-12 00:00:00.0000, 4.203982806934878E+08, -1.514923491827959E+07, -3.205625305411559E+07,
2459657.500000000, A.D. 2022-Mar-19 00:00:00.0000, 4.220730135019844E+08, -5.990568575774459E+06, -3.197097998769457E+07,
2459664.500000000, A.D. 2022-Mar-26 00:00:00.0000, 4.234779234349326E+08, 3.171772543747237E+06, -3.186522839068823E+07,
2459671.500000000, A.D. 2022-Apr-02 00:00:00.0000, 4.246147061364426E+08, 1.233194521730160E+07, -3.173926173972718E+07,
2459678.500000000, A.D. 2022-Apr-09 00:00:00.0000, 4.254850749586301E+08, 2.148421437619925E+07, -3.159334249032442E+07,
2459685.500000000, A.D. 2022-Apr-16 00:00:00.0000, 4.260907601104870E+08, 3.062294612696680E+07, -3.142773217552292E+07,
2459692.500000000, A.D. 2022-Apr-23 00:00:00.0000, 4.264335075526816E+08, 3.974260261400559E+07, -3.124269134027711E+07,
2459699.500000000, A.D. 2022-Apr-30 00:00:00.0000, 4.265150757505563E+08, 4.883773646808939E+07, -3.103847932247925E+07,
2459706.500000000, A.D. 2022-May-07 00:00:00.0000, 4.263372333307475E+08, 5.790298285353319E+07, -3.081535432209960E+07,
2459713.500000000, A.D. 2022-May-14 00:00:00.0000, 4.259017590118334E+08, 6.693305214024783E+07, -3.057357363659603E+07,
2459720.500000000, A.D. 2022-May-21 00:00:00.0000, 4.252104417624776E+08, 7.592272394923776E+07, -3.031339381335524E+07,
2459727.500000000, A.D. 2022-May-28 00:00:00.0000, 4.242650806961874E+08, 8.486684160244279E+07, -3.003507075292080E+07,
2459734.500000000, A.D. 2022-Jun-04 00:00:00.0000, 4.230674849694970E+08, 9.376030665352726E+07, -2.973885981345844E+07,
2459741.500000000, A.D. 2022-Jun-11 00:00:00.0000, 4.216194738192849E+08, 1.025980734911018E+08, -2.942501592909590E+07,
2459748.500000000, A.D. 2022-Jun-18 00:00:00.0000, 4.199228767698896E+08, 1.113751440167628E+08, -2.909379374417661E+07,
2459755.500000000, A.D. 2022-Jun-25 00:00:00.0000, 4.179795340318110E+08, 1.200865623538588E+08, -2.874544776839403E+07,
2459762.500000000, A.D. 2022-Jul-02 00:00:00.0000, 4.157912972186111E+08, 1.287274095108559E+08, -2.838023257001798E+07,
2459769.500000000, A.D. 2022-Jul-09 00:00:00.0000, 4.133600307651691E+08, 1.372927981667890E+08, -2.799840302814120E+07,
2459776.500000000, A.D. 2022-Jul-16 00:00:00.0000, 4.106876139851003E+08, 1.457778686538724E+08, -2.760021454994993E+07,
2459783.500000000, A.D. 2022-Jul-23 00:00:00.0000, 4.077759415655988E+08, 1.541777862109199E+08, -2.718592304459874E+07,
2459790.500000000, A.D. 2022-Jul-30 00:00:00.0000, 4.046269225882400E+08, 1.624877361492687E+08, -2.675578493572510E+07,
2459797.500000000, A.D. 2022-Aug-06 00:00:00.0000, 4.012424816787274E+08, 1.707029175702102E+08, -2.631005749021465E+07,
2459804.500000000, A.D. 2022-Aug-13 00:00:00.0000, 3.976245614629959E+08, 1.788185383791872E+08, -2.584899916264080E+07,
2459811.500000000, A.D. 2022-Aug-20 00:00:00.0000, 3.937751247618012E+08, 1.868298110859027E+08, -2.537286985252546E+07,
2459818.500000000, A.D. 2022-Aug-27 00:00:00.0000, 3.896961565947055E+08, 1.947319486569325E+08, -2.488193114013802E+07,
2459825.500000000, A.D. 2022-Sep-03 00:00:00.0000, 3.853896662449315E+08, 2.025201603039891E+08, -2.437644653281718E+07,
2459832.500000000, A.D. 2022-Sep-10 00:00:00.0000, 3.808576894796643E+08, 2.101896472260933E+08, -2.385668172845785E+07,
2459839.500000000, A.D. 2022-Sep-17 00:00:00.0000, 3.761022909608748E+08, 2.177355982989154E+08, -2.332290489948878E+07,
2459846.500000000, A.D. 2022-Sep-24 00:00:00.0000, 3.711255669141412E+08, 2.251531856560699E+08, -2.277538700769442E+07,
2459853.500000000, A.D. 2022-Oct-01 00:00:00.0000, 3.659296483042349E+08, 2.324375601361885E+08, -2.221440217458948E+07,
2459860.500000000, A.D. 2022-Oct-08 00:00:00.0000, 3.605167049348438E+08, 2.395838471133011E+08, -2.164022810313371E+07,
2459867.500000000, A.D. 2022-Oct-15 00:00:00.0000, 3.548889495492996E+08, 2.465871439042708E+08, -2.105314636829126E+07,
2459874.500000000, A.D. 2022-Oct-22 00:00:00.0000, 3.490486397598248E+08, 2.534425170674468E+08, -2.045344251467255E+07,
2459881.500000000, A.D. 2022-Oct-29 00:00:00.0000, 3.429980803183026E+08, 2.601449969988841E+08, -1.984140640363957E+07,
2459888.500000000, A.D. 2022-Nov-05 00:00:00.0000, 3.367396278426582E+08, 2.666895725636674E+08, -1.921733277994339E+07,
2459895.500000000, A.D. 2022-Nov-12 00:00:00.0000, 3.302756960463601E+08, 2.730711870272188E+08, -1.858152177527131E+07,
2459902.500000000, A.D. 2022-Nov-19 00:00:00.0000, 3.236087607662095E+08, 2.792847343332938E+08, -1.793427936195508E+07,
2459909.500000000, A.D. 2022-Nov-26 00:00:00.0000, 3.167413650680103E+08, 2.853250553339178E+08, -1.727591781487057E+07,
2459916.500000000, A.D. 2022-Dec-03 00:00:00.0000, 3.096761246159198E+08, 2.911869339635419E+08, -1.660675619936183E+07,
2459923.500000000, A.D. 2022-Dec-10 00:00:00.0000, 3.024157333730445E+08, 2.968650933809006E+08, -1.592712088957174E+07,
2459930.500000000, A.D. 2022-Dec-17 00:00:00.0000, 2.949629696820080E+08, 3.023541920593124E+08, -1.523734612323935E+07,
2459937.500000000, A.D. 2022-Dec-24 00:00:00.0000, 2.873207028607002E+08, 3.076488197665834E+08, -1.453777461013240E+07,
2459944.500000000, A.D. 2022-Dec-31 00:00:00.0000, 2.794919006988439E+08, 3.127434935507425E+08, -1.382875821997386E+07,
2459951.500000000, A.D. 2023-Jan-07 00:00:00.0000, 2.714796380083809E+08, 3.176326547033598E+08, -1.311065868451142E+07,
2459958.500000000, A.D. 2023-Jan-14 00:00:00.0000, 2.632871042899643E+08, 3.223106672063009E+08, -1.238384809455493E+07,
2459965.500000000, A.D. 2023-Jan-21 00:00:00.0000, 2.549176099004539E+08, 3.267718145049757E+08, -1.164870939366385E+07,
2459972.500000000, A.D. 2023-Jan-28 00:00:00.0000, 2.463745944272792E+08, 3.310102944343474E+08, -1.090563722324304E+07,
2459979.500000000, A.D. 2023-Feb-04 00:00:00.0000, 2.376616371010682E+08, 3.350202153455318E+08, -1.015503885509317E+07,
2459986.500000000, A.D. 2023-Feb-11 00:00:00.0000, 2.287824674908618E+08, 3.387955932628436E+08, -9.397335064858124E+06,
2459993.500000000, A.D. 2023-Feb-18 00:00:00.0000, 2.197409764619262E+08, 3.423303492772294E+08, -8.632961010248259E+06,
2460000.500000000, A.D. 2023-Feb-25 00:00:00.0000, 2.105412277061882E+08, 3.456183070474434E+08, -7.862367153964967E+06,
2460007.500000000, A.D. 2023-Mar-04 00:00:00.0000, 2.011874699974429E+08, 3.486531904642634E+08, -7.086020241861209E+06,
2460014.500000000, A.D. 2023-Mar-11 00:00:00.0000, 1.916841502511916E+08, 3.514286215187073E+08, -6.304404341600418E+06,
2460021.500000000, A.D. 2023-Mar-18 00:00:00.0000, 1.820359274877030E+08, 3.539381183716636E+08, -5.518021952760756E+06,
2460028.500000000, A.D. 2023-Mar-25 00:00:00.0000, 1.722476879543372E+08, 3.561750936349002E+08, -4.727395213388845E+06,
2460035.500000000, A.D. 2023-Apr-01 00:00:00.0000, 1.623245618887860E+08, 3.581328533270441E+08, -3.933067212402090E+06,
2460042.500000000, A.D. 2023-Apr-08 00:00:00.0000, 1.522719413721727E+08, 3.598045978100501E+08, -3.135603254259035E+06,
2460049.500000000, A.D. 2023-Apr-15 00:00:00.0000, 1.420954970012945E+08, 3.611834236850300E+08, -2.335591954686821E+06,
2460056.500000000, A.D. 2023-Apr-22 00:00:00.0000, 1.318011952534458E+08, 3.622623236946439E+08, -1.533646584929496E+06,
2460063.500000000, A.D. 2023-Apr-29 00:00:00.0000, 1.213953193497052E+08, 3.630341870017018E+08, -7.304067339972556E+05,
2460070.500000000, A.D. 2023-May-06 00:00:00.0000, 1.108844919276097E+08, 3.634918017497356E+08, 7.346001548606157E+04,
2460077.500000000, A.D. 2023-May-13 00:00:00.0000, 1.002756986128392E+08, 3.636278591519629E+08, 8.772564126336277E+05,
2460084.500000000, A.D. 2023-May-20 00:00:00.0000, 8.957631278855522E+07, 3.634349587785100E+08, 1.680253801975965E+06,
2460091.500000000, A.D. 2023-May-27 00:00:00.0000, 7.879412181793873E+07, 3.629056151950938E+08, 2.481690304645121E+06,
2460098.500000000, A.D. 2023-Jun-03 00:00:00.0000, 6.793735483491752E+07, 3.620322661850196E+08, 3.280768914079323E+06,
2460105.500000000, A.D. 2023-Jun-10 00:00:00.0000, 5.701471217708652E+07, 3.608072827721409E+08, 4.076655504241660E+06,
2460112.500000000, A.D. 2023-Jun-17 00:00:00.0000, 4.603539658986246E+07, 3.592229812441961E+08, 4.868476740018576E+06,
2460119.500000000, A.D. 2023-Jun-24 00:00:00.0000, 3.500914654783022E+07, 3.572716375229212E+08, 5.655317869548559E+06,
2460126.500000000, A.D. 2023-Jul-01 00:00:00.0000, 2.394627195448507E+07, 3.549455050355766E+08, 6.436220449623510E+06,
2460133.500000000, A.D. 2023-Jul-08 00:00:00.0000, 1.285769053464550E+07, 3.522368372735944E+08, 7.210180233836457E+06,
2460140.500000000, A.D. 2023-Jul-15 00:00:00.0000, 1.754963601913998E+06, 3.491379126018515E+08, 7.976145121622711E+06,
2460147.500000000, A.D. 2023-Jul-22 00:00:00.0000, -9.349665363917787E+06, 3.456410607215289E+08, 8.733012777618393E+06,
$$EOE